NORAD_CAT_ID,OBJECT_NAME,OBJECT_TYPE,EPOCH,MEAN_MOTION,ECCENTRICITY,INCLINATION,RA_OF_ASC_NODE,ARG_OF_PERICENTER,MEAN_ANOMALY,BSTAR,MEAN_MOTION_DOT,MEAN_MOTION_DDOT,TLE_LINE0,TLE_LINE1,TLE_LINE2,SEMIMAJOR_AXIS,PERIOD,APOGEE,PERIGEE,DECAYED
52610.0,STARLINK-3998,PAYLOAD,2023-02-09 20:34:54,15.08849108,8.22e-05,53.2156,289.2036,60.8005,299.3069,0.00097044,0.00015194,0.0,0 STARLINK-3998,1 52610U 22052N   23040.85757181  .00015194  00000-0  97044-3 0  9993,2 52610  53.2156 289.2036 0000822  60.8005 299.3069 15.08849108 41499,6917.853,95.437,540.286,539.149,0.0
52610.0,STARLINK-3998,PAYLOAD,2023-02-10 01:21:03,15.08853153,0.0001246,53.2158,288.3113,77.7647,282.3484,0.0010637,0.00016687,0.0,0 STARLINK-3998,1 52610U 22052N   23041.05629160  .00016687  00000-0  10637-2 0  9991,2 52610  53.2158 288.3113 0001246  77.7647 282.3484 15.08853153 41158,6917.84,95.437,540.567,538.843,0.0
52610.0,STARLINK-3998,PAYLOAD,2023-02-10 22:01:04,15.08843708,0.0001905,53.215,284.4476,35.6314,324.4805,0.00055308,8.526e-05,0.0,0 STARLINK-3998,1 52610U 22052N   23041.91741540  .00008526  00000-0  55308-3 0  9991,2 52610  53.2150 284.4476 0001905  35.6314 324.4805 15.08843708 41650,6917.869,95.437,541.052,538.416,0.0
52610.0,STARLINK-3998,PAYLOAD,2023-02-10 23:36:27,15.08850294,0.0001533,53.2157,284.1467,49.9547,310.1579,0.0010272,0.00016102,0.0,0 STARLINK-3998,1 52610U 22052N   23041.98365296  .00016102  00000-0  10272-2 0  9997,2 52610  53.2157 284.1467 0001533  49.9547 310.1579 15.08850294 41666,6917.849,95.437,540.774,538.653,0.0
52610.0,STARLINK-3998,PAYLOAD,2023-02-11 21:51:51,15.0883941,0.0001051,53.2159,279.9838,82.6566,277.4545,0.00072479,0.00011266,0.0,0 STARLINK-3998,1 52610U 22052N   23042.91101630  .00011266  00000-0  72479-3 0  9995,2 52610  53.2159 279.9838 0001051  82.6566 277.4545 15.08839410 41432,6917.882,95.438,540.474,539.02,0.0
52610.0,STARLINK-3998,PAYLOAD,2023-02-12 08:59:34,15.08828505,0.0001776,53.2154,277.9025,82.824,277.2954,0.00027949,4.161e-05,0.0,0 STARLINK-3998,1 52610U 22052N   23043.37470209  .00004161  00000-0  27949-3 0  9995,2 52610  53.2154 277.9025 0001776  82.8240 277.2954 15.08828505 41871,6917.916,95.438,541.009,538.552,0.0
52610.0,STARLINK-3998,PAYLOAD,2023-02-13 08:50:21,15.08841184,0.0001889,53.2153,273.4408,71.856,288.2638,0.0006015,9.298e-05,0.0,0 STARLINK-3998,1 52610U 22052N   23044.36830599  .00009298  00000-0  60150-3 0  9994,2 52610  53.2153 273.4408 0001889  71.8560 288.2638 15.08841184 41659,6917.877,95.437,541.049,538.435,0.0
52610.0,STARLINK-3998,PAYLOAD,2023-02-14 00:44:12,15.08859057,0.000161,53.2153,270.467,67.0228,293.0934,0.00069055,0.00010725,0.0,0 STARLINK-3998,1 52610U 22052N   23045.03069851  .00010725  00000-0  69055-3 0  9994,2 52610  53.2153 270.4670 0001610  67.0228 293.0934 15.08859057 42121,6917.822,95.436,540.801,538.573,0.0
52610.0,STARLINK-3998,PAYLOAD,2023-02-14 15:02:40,15.08848877,0.0001778,53.2158,267.7882,86.2057,273.9139,0.00024918,3.681e-05,0.0,0 STARLINK-3998,1 52610U 22052N   23045.62685808  .00003681  00000-0  24918-3 0  9997,2 52610  53.2158 267.7882 0001778  86.2057 273.9139 15.08848877 42210,6917.853,95.437,540.948,538.488,0.0
52610.0,STARLINK-3998,PAYLOAD,2023-02-15 13:18:04,15.08847827,0.0001029,53.2177,263.6278,71.3447,288.7657,0.0005809,8.971e-05,0.0,0 STARLINK-3998,1 52610U 22052N   23046.55421995  .00008971  00000-0  58090-3 0  9990,2 52610  53.2177 263.6278 0001029  71.3447 288.7657 15.08847827 41988,6917.856,95.437,540.433,539.01,0.0
52610.0,STARLINK-3998,PAYLOAD,2023-02-16 13:08:51,15.08844723,0.0002076,53.2125,259.1686,76.3506,283.7717,0.00017022,2.422e-05,0.0,0 STARLINK-3998,1 52610U 22052N   23047.54781789  .00002422  00000-0  17022-3 0  9995,2 52610  53.2125 259.1686 0002076  76.3506 283.7717 15.08844723 42130,6917.866,95.437,541.167,538.295,0.0
52610.0,STARLINK-3998,PAYLOAD,2023-02-16 21:05:47,15.08839107,0.000166,53.2186,257.6821,94.1352,265.983,5.6797e-05,6.16e-06,0.0,0 STARLINK-3998,1 52610U 22052N   23047.87901915  .00000616  00000-0  56797-4 0  9992,2 52610  53.2186 257.6821 0001660  94.1352 265.9830 15.08839107 42189,6917.883,95.438,540.896,538.6,0.0
52610.0,STARLINK-3998,PAYLOAD,2023-02-17 00:16:32,15.08866639,8.61e-05,53.2147,257.0856,70.7866,289.3219,0.00058392,9.024e-05,0.0,0 STARLINK-3998,1 52610U 22052N   23048.01148892  .00009024  00000-0  58392-3 0  9990,2 52610  53.2147 257.0856 0000861  70.7866 289.3219 15.08866639 42574,6917.799,95.436,540.26,539.068,0.0
52610.0,STARLINK-3998,PAYLOAD,2023-02-17 06:38:05,15.08851696,7.9e-05,53.2145,255.8951,64.0124,296.0949,0.0001943,2.807e-05,0.0,0 STARLINK-3998,1 52610U 22052N   23048.27645223  .00002807  00000-0  19430-3 0  9990,2 52610  53.2145 255.8951 0000790  64.0124 296.0949 15.08851696 42615,6917.845,95.437,540.256,539.163,0.0
52610.0,STARLINK-3998,PAYLOAD,2023-02-17 20:56:34,15.08826162,0.0001788,53.2162,253.22,88.2623,271.8574,-0.00016393,-2.895e-05,0.0,0 STARLINK-3998,1 52610U 22052N   23048.87262723 -.00002895  00000-0 -16393-3 0  9990,2 52610  53.2162 253.2200 0001788  88.2623 271.8574 15.08826162 42337,6917.923,95.438,541.025,538.551,0.0
52610.0,STARLINK-3998,PAYLOAD,2023-02-18 14:25:49,15.08835048,0.0001281,53.2135,249.9484,88.3849,271.729,0.00017408,2.483e-05,0.0,0 STARLINK-3998,1 52610U 22052N   23049.60126807  .00002483  00000-0  17408-3 0  9993,2 52610  53.2135 249.9484 0001281  88.3849 271.7290 15.08835048 42441,6917.896,95.438,540.647,538.874,0.0
52610.0,STARLINK-3998,PAYLOAD,2023-02-19 12:41:13,15.08840256,0.0001404,53.2142,245.7847,86.7117,273.4035,0.00029634,4.431e-05,0.0,0 STARLINK-3998,1 52610U 22052N   23050.52863031  .00004431  00000-0  29634-3 0  9992,2 52610  53.2142 245.7847 0001404  86.7117 273.4035 15.08840256 42581,6917.88,95.438,540.716,538.773,0.0
52610.0,STARLINK-3998,PAYLOAD,2023-02-19 19:02:46,15.08846512,0.0001338,53.2142,244.5954,86.5094,273.6051,0.00036025,5.451e-05,0.0,0 STARLINK-3998,1 52610U 22052N   23050.79358833  .00005451  00000-0  36025-3 0  9995,2 52610  53.2142 244.5954 0001338  86.5094 273.6051 15.08846512 42991,6917.86,95.437,540.651,538.8,0.0
52610.0,STARLINK-3998,PAYLOAD,2023-02-20 12:32:00,15.08849242,0.0001383,53.2139,241.3238,85.5514,274.5636,0.00026798,3.981e-05,0.0,0 STARLINK-3998,1 52610U 22052N   23051.52222511  .00003981  00000-0  26798-3 0  9992,2 52610  53.2139 241.3238 0001383  85.5514 274.5636 15.08849242 42737,6917.852,95.437,540.674,538.76,0.0
52610.0,STARLINK-3998,PAYLOAD,2023-02-20 22:04:18,15.0885264,0.0001331,53.2142,239.5396,84.5053,275.6091,0.00023386,3.437e-05,0.0,0 STARLINK-3998,1 52610U 22052N   23051.91966095  .00003437  00000-0  23386-3 0  9993,2 52610  53.2142 239.5396 0001331  84.5053 275.6091 15.08852640 43166,6917.842,95.437,540.628,538.786,0.0
52610.0,STARLINK-3998,PAYLOAD,2023-02-21 12:22:47,15.08844257,0.0001302,53.2139,236.8638,82.0079,278.1061,9.3146e-05,1.195e-05,0.0,0 STARLINK-3998,1 52610U 22052N   23052.51582353  .00001195  00000-0  93146-4 0  9992,2 52610  53.2139 236.8638 0001302  82.0079 278.1061 15.08844257 42888,6917.867,95.437,540.633,538.832,0.0
52610.0,STARLINK-3998,PAYLOAD,2023-02-21 18:44:19,15.08847293,0.0001208,53.2141,235.6739,85.9443,274.1687,0.00012904,1.767e-05,0.0,0 STARLINK-3998,1 52610U 22052N   23052.78078111  .00001767  00000-0  12904-3 0  9990,2 52610  53.2141 235.6739 0001208  85.9443 274.1687 15.08847293 43291,6917.858,95.437,540.559,538.887,0.0
52610.0,STARLINK-3998,PAYLOAD,2023-02-22 12:13:34,15.08839164,0.0001233,53.2142,232.4022,90.2005,269.9128,-7.1047e-06,-4.01e-06,0.0,0 STARLINK-3998,1 52610U 22052N   23053.50942353 -.00000401  00000-0 -71047-5 0  9990,2 52610  53.2142 232.4022 0001233  90.2005 269.9128 15.08839164 43035,6917.883,95.438,540.601,538.895,0.0
52610.0,STARLINK-3998,PAYLOAD,2023-02-22 18:35:06,15.08842005,0.0001131,53.2145,231.213,91.7313,268.3808,3.7456e-05,3.08e-06,0.0,0 STARLINK-3998,1 52610U 22052N   23053.77438179  .00000308  00000-0  37456-4 0  9994,2 52610  53.2145 231.2130 0001131  91.7313 268.3808 15.08842005 43441,6917.874,95.437,540.522,538.957,0.0
52610.0,STARLINK-3998,PAYLOAD,2023-02-23 12:04:21,15.08829924,0.0001186,53.2149,227.9422,95.8841,264.2286,-5.9531e-05,-1.235e-05,0.0,0 STARLINK-3998,1 52610U 22052N   23054.50303046 -.00001235  00000-0 -59531-4 0  9990,2 52610  53.2149 227.9422 0001186  95.8841 264.2286 15.08829924 43554,6917.911,95.438,540.597,538.956,0.0
52610.0,STARLINK-3998,PAYLOAD,2023-02-23 20:01:17,15.08835311,0.0001189,53.2148,226.4556,94.4555,265.6573,3.2805e-05,2.34e-06,0.0,0 STARLINK-3998,1 52610U 22052N   23054.83422955  .00000234  00000-0  32805-4 0  9998,2 52610  53.2148 226.4556 0001189  94.4555 265.6573 15.08835311 43231,6917.895,95.438,540.582,538.937,0.0
52610.0,STARLINK-3998,PAYLOAD,2023-02-24 11:55:09,15.08835107,0.0001181,53.2148,223.4819,97.3331,262.7795,0.00014708,2.053e-05,0.0,0 STARLINK-3998,1 52610U 22052N   23055.49663202  .00002053  00000-0  14708-3 0  9995,2 52610  53.2148 223.4819 0001181  97.3331 262.7795 15.08835107 43334,6917.895,95.438,540.577,538.943,0.0
52610.0,STARLINK-3998,PAYLOAD,2023-02-24 19:52:04,15.08842174,0.0001142,53.2152,221.9949,94.1399,265.9724,0.00016039,2.266e-05,0.0,0 STARLINK-3998,1 52610U 22052N   23055.82782892  .00002266  00000-0  16039-3 0  9994,2 52610  53.2152 221.9949 0001142  94.1399 265.9724 15.08842174 43757,6917.874,95.437,540.529,538.949,0.0
52610.0,STARLINK-3998,PAYLOAD,2023-02-25 03:49:00,15.08836519,0.0001078,53.215,220.5072,88.9185,271.1931,0.00012826,1.754e-05,0.0,0 STARLINK-3998,1 52610U 22052N   23056.15903228  .00001754  00000-0  12826-3 0  9990,2 52610  53.2150 220.5072 0001078  88.9185 271.1931 15.08836519 43800,6917.891,95.438,540.502,539.01,0.0
52610.0,STARLINK-3998,PAYLOAD,2023-02-25 19:42:51,15.08842373,0.0001091,53.215,217.5336,90.4148,269.6969,0.00018711,2.691e-05,0.0,0 STARLINK-3998,1 52610U 22052N   23056.82143086  .00002691  00000-0  18711-3 0  9992,2 52610  53.2150 217.5336 0001091  90.4148 269.6969 15.08842373 43539,6917.873,95.437,540.493,538.983,0.0
